start=new Date('2022-03-15T00:00:00.000Z').valueOf();
sats=[{"CLASSIFICATION_TYPE":"U","LAUNCH_DATE":"2020-09-03","INCLINATION":"53.0532","SEMIMAJOR_AXIS":"6925.390","TLE_LINE1":"1 46368U 20062AV  22073.42257807 -.00003312  00000-0 -20358-3 0  9998","DECAY_DATE":null,"ARG_OF_PERICENTER":"55.4492","MEAN_MOTION":"15.06386398","RCS_SIZE":"LARGE","MEAN_MOTION_DOT":"-0.00003312","SITE":"AFETR","OBJECT_ID":"2020-062AV","MEAN_MOTION_DDOT":"0.0000000000000","RA_OF_ASC_NODE":"54.0576","TIME_SYSTEM":"UTC","PERIOD":"95.593","EPOCH":"2022-03-14T10:08:30.745248","REV_AT_EPOCH":"8528","EPHEMERIS_TYPE":"0","BSTAR":"-0.00020358000000","FILE":"3358878","MEAN_ANOMALY":"304.6674","CENTER_NAME":"EARTH","APOAPSIS":"548.557","NORAD_CAT_ID":"46368","ECCENTRICITY":"0.00018790","COUNTRY_CODE":"US","REF_FRAME":"TEME","GP_ID":"198703044","OBJECT_NAME":"STARLINK-1658","OBJECT_TYPE":"PAYLOAD","TLE_LINE2":"2 46368  53.0532  54.0576 0001879  55.4492 304.6674 15.06386398 85280","ELEMENT_SET_NO":"999","PERIAPSIS":"545.954","MEAN_ELEMENT_THEORY":"SGP4"},{"MEAN_MOTION":"15.06390799","MEAN_MOTION_DOT":"0.00002063","RCS_SIZE":"LARGE","INCLINATION":"53.0560","CLASSIFICATION_TYPE":"U","LAUNCH_DATE":"2020-09-03","ARG_OF_PERICENTER":"57.1444","DECAY_DATE":null,"TLE_LINE1":"1 46370U 20062AX  22073.31937393  .00002063  00000-0  15741-3 0  9994","SEMIMAJOR_AXIS":"6925.377","REV_AT_EPOCH":"8508","EPOCH":"2022-03-14T07:39:53.907552","TIME_SYSTEM":"UTC","RA_OF_ASC_NODE":"54.5324","SITE":"AFETR","MEAN_MOTION_DDOT":"0.0000000000000","OBJECT_ID":"2020-062AX","PERIOD":"95.593","NORAD_CAT_ID":"46370","APOAPSIS":"548.675","REF_FRAME":"TEME","COUNTRY_CODE":"US","ECCENTRICITY":"0.00020700","EPHEMERIS_TYPE":"0","MEAN_ANOMALY":"302.9744","CENTER_NAME":"EARTH","FILE":"3359259","BSTAR":"0.00015741000000","MEAN_ELEMENT_THEORY":"SGP4","PERIAPSIS":"545.808","ELEMENT_SET_NO":"999","OBJECT_NAME":"STARLINK-1670","GP_ID":"198734440","TLE_LINE2":"2 46370  53.0560  54.5324 0002070  57.1444 302.9744 15.06390799 85087","OBJECT_TYPE":"PAYLOAD"},{"RCS_SIZE":"LARGE","MEAN_MOTION_DOT":"0.00010541","MEAN_MOTION":"15.06397751","ARG_OF_PERICENTER":"49.8399","DECAY_DATE":null,"TLE_LINE1":"1 46371U 20062AY  22073.44469332  .00010541  00000-0  72550-3 0  9993","SEMIMAJOR_AXIS":"6925.355","INCLINATION":"53.0530","CLASSIFICATION_TYPE":"U","LAUNCH_DATE":"2020-09-03","REV_AT_EPOCH":"8510","EPOCH":"2022-03-14T10:40:21.502848","PERIOD":"95.592","TIME_SYSTEM":"UTC","RA_OF_ASC_NODE":"53.9476","SITE":"AFETR","MEAN_MOTION_DDOT":"0.0000000000000","OBJECT_ID":"2020-062AY","REF_FRAME":"TEME","COUNTRY_CODE":"US","ECCENTRICITY":"0.00019140","NORAD_CAT_ID":"46371","APOAPSIS":"548.546","CENTER_NAME":"EARTH","MEAN_ANOMALY":"310.2758","FILE":"3359259","BSTAR":"0.00072550000000","EPHEMERIS_TYPE":"0","PERIAPSIS":"545.895","MEAN_ELEMENT_THEORY":"SGP4","ELEMENT_SET_NO":"999","TLE_LINE2":"2 46371  53.0530  53.9476 0001914  49.8399 310.2758 15.06397751 85104","OBJECT_TYPE":"PAYLOAD","OBJECT_NAME":"STARLINK-1688","GP_ID":"198734190"},{"MEAN_ELEMENT_THEORY":"SGP4","PERIAPSIS":"546.001","ELEMENT_SET_NO":"999","OBJECT_NAME":"STARLINK-1689","GP_ID":"198768908","TLE_LINE2":"2 46372  53.0547  72.7140 0001728  53.1983 306.9164 15.06405066 84864","OBJECT_TYPE":"PAYLOAD","NORAD_CAT_ID":"46372","APOAPSIS":"548.395","REF_FRAME":"TEME","COUNTRY_CODE":"US","ECCENTRICITY":"0.00017280","EPHEMERIS_TYPE":"0","CENTER_NAME":"EARTH","MEAN_ANOMALY":"306.9164","FILE":"3359665","BSTAR":"-0.00005698400000","EPOCH":"2022-03-14T17:15:46.945440","REV_AT_EPOCH":"8486","TIME_SYSTEM":"UTC","RA_OF_ASC_NODE":"72.7140","SITE":"AFETR","MEAN_MOTION_DDOT":"0.0000000000000","OBJECT_ID":"2020-062AZ","PERIOD":"95.592","MEAN_MOTION":"15.06405066","RCS_SIZE":"LARGE","MEAN_MOTION_DOT":"-0.00001130","INCLINATION":"53.0547","CLASSIFICATION_TYPE":"U","LAUNCH_DATE":"2020-09-03","ARG_OF_PERICENTER":"53.1983","TLE_LINE1":"1 46372U 20062AZ  22073.71929335 -.00001130  00000-0 -56984-4 0  9998","DECAY_DATE":null,"SEMIMAJOR_AXIS":"6925.333"},{"RCS_SIZE":"LARGE","MEAN_MOTION_DOT":"0.00000185","MEAN_MOTION":"15.06394281","SEMIMAJOR_AXIS":"6925.366","DECAY_DATE":null,"TLE_LINE1":"1 46374U 20062BB  22073.53407060  .00000185  00000-0  31340-4 0  9992","ARG_OF_PERICENTER":"96.0971","LAUNCH_DATE":"2020-09-03","CLASSIFICATION_TYPE":"U","INCLINATION":"53.0562","EPOCH":"2022-03-14T12:49:03.699840","REV_AT_EPOCH":"8581","PERIOD":"95.593","MEAN_MOTION_DDOT":"0.0000000000000","SITE":"AFETR","OBJECT_ID":"2020-062BB","RA_OF_ASC_NODE":"3.5631","TIME_SYSTEM":"UTC","COUNTRY_CODE":"US","ECCENTRICITY":"0.00011690","REF_FRAME":"TEME","APOAPSIS":"548.041","NORAD_CAT_ID":"46374","BSTAR":"0.00003134000000","FILE":"3359259","MEAN_ANOMALY":"264.0152","CENTER_NAME":"EARTH","EPHEMERIS_TYPE":"0","ELEMENT_SET_NO":"999","PERIAPSIS":"546.422","MEAN_ELEMENT_THEORY":"SGP4","OBJECT_TYPE":"PAYLOAD","TLE_LINE2":"2 46374  53.0562   3.5631 0001169  96.0971 264.0152 15.06394281 85815","GP_ID":"198733189","OBJECT_NAME":"STARLINK-1711"},{"SEMIMAJOR_AXIS":"6925.380","DECAY_DATE":null,"TLE_LINE1":"1 46375U 20062BC  22073.28296575  .00004634  00000-0  32985-3 0  9990","ARG_OF_PERICENTER":"47.7572","LAUNCH_DATE":"2020-09-03","CLASSIFICATION_TYPE":"U","INCLINATION":"53.0541","MEAN_MOTION_DOT":"0.00004634","RCS_SIZE":"LARGE","MEAN_MOTION":"15.06389834","PERIOD":"95.593","MEAN_MOTION_DDOT":"0.0000000000000","SITE":"AFETR","OBJECT_ID":"2020-062BC","RA_OF_ASC_NODE":"29.6726","TIME_SYSTEM":"UTC","REV_AT_EPOCH":"8542","EPOCH":"2022-03-14T06:47:28.240800","BSTAR":"0.00032985000000","FILE":"3359259","MEAN_ANOMALY":"312.3576","CENTER_NAME":"EARTH","EPHEMERIS_TYPE":"0","ECCENTRICITY":"0.00018800","COUNTRY_CODE":"US","REF_FRAME":"TEME","APOAPSIS":"548.547","NORAD_CAT_ID":"46375","OBJECT_TYPE":"PAYLOAD","TLE_LINE2":"2 46375  53.0541  29.6726 0001880  47.7572 312.3576 15.06389834 85429","GP_ID":"198733941","OBJECT_NAME":"STARLINK-1724","ELEMENT_SET_NO":"999","PERIAPSIS":"545.943","MEAN_ELEMENT_THEORY":"SGP4"},{"INCLINATION":"53.0575","LAUNCH_DATE":"2020-09-03","CLASSIFICATION_TYPE":"U","SEMIMAJOR_AXIS":"6925.383","ARG_OF_PERICENTER":"61.0956","TLE_LINE1":"1 46376U 20062BD  22073.56310920 -.00001858  00000-0 -10591-3 0  9999","DECAY_DATE":null,"MEAN_MOTION":"15.06388868","RCS_SIZE":"LARGE","MEAN_MOTION_DOT":"-0.00001858","SITE":"AFETR","MEAN_MOTION_DDOT":"0.0000000000000","OBJECT_ID":"2020-062BD","TIME_SYSTEM":"UTC","RA_OF_ASC_NODE":"28.4218","PERIOD":"95.593","REV_AT_EPOCH":"8546","EPOCH":"2022-03-14T13:30:52.634880","EPHEMERIS_TYPE":"0","FILE":"3359259","BSTAR":"-0.00010591000000","MEAN_ANOMALY":"299.0210","CENTER_NAME":"EARTH","NORAD_CAT_ID":"46376","APOAPSIS":"548.471","ECCENTRICITY":"0.00017660","COUNTRY_CODE":"US","REF_FRAME":"TEME","GP_ID":"198734690","OBJECT_NAME":"STARLINK-1742","OBJECT_TYPE":"PAYLOAD","TLE_LINE2":"2 46376  53.0575  28.4218 0001766  61.0956 299.0210 15.06388868 85464","ELEMENT_SET_NO":"999","PERIAPSIS":"546.025","MEAN_ELEMENT_THEORY":"SGP4"},{"GP_ID":"198768409","OBJECT_NAME":"STARLINK-1758","OBJECT_TYPE":"PAYLOAD","TLE_LINE2":"2 46380  53.0551  52.9781 0001944  58.2165 301.9013 15.06414864 85132","ELEMENT_SET_NO":"999","PERIAPSIS":"545.822","MEAN_ELEMENT_THEORY":"SGP4","EPHEMERIS_TYPE":"0","FILE":"3359665","BSTAR":"0.00043904000000","CENTER_NAME":"EARTH","MEAN_ANOMALY":"301.9013","NORAD_CAT_ID":"46380","APOAPSIS":"548.514","COUNTRY_CODE":"US","ECCENTRICITY":"0.00019440","REF_FRAME":"TEME","SITE":"AFETR","MEAN_MOTION_DDOT":"0.0000000000000","OBJECT_ID":"2020-062BH","TIME_SYSTEM":"UTC","RA_OF_ASC_NODE":"52.9781","PERIOD":"95.591","EPOCH":"2022-03-14T15:53:30.208416","REV_AT_EPOCH":"8513","INCLINATION":"53.0551","CLASSIFICATION_TYPE":"U","LAUNCH_DATE":"2020-09-03","SEMIMAJOR_AXIS":"6925.303","ARG_OF_PERICENTER":"58.2165","DECAY_DATE":null,"TLE_LINE1":"1 46380U 20062BH  22073.66215519  .00006266  00000-0  43904-3 0  9993","MEAN_MOTION":"15.06414864","RCS_SIZE":"LARGE","MEAN_MOTION_DOT":"0.00006266"},{"EPHEMERIS_TYPE":"0","BSTAR":"0.00048876000000","FILE":"3359259","MEAN_ANOMALY":"307.6189","CENTER_NAME":"EARTH","APOAPSIS":"548.329","NORAD_CAT_ID":"46382","COUNTRY_CODE":"US","ECCENTRICITY":"0.00017000","REF_FRAME":"TEME","GP_ID":"198733689","OBJECT_NAME":"STARLINK-1769","OBJECT_TYPE":"PAYLOAD","TLE_LINE2":"2 46382  53.0554  28.3716 0001700  52.4955 307.6189 15.06420318 85470","ELEMENT_SET_NO":"999","MEAN_ELEMENT_THEORY":"SGP4","PERIAPSIS":"545.974","CLASSIFICATION_TYPE":"U","LAUNCH_DATE":"2020-09-03","INCLINATION":"53.0554","SEMIMAJOR_AXIS":"6925.286","TLE_LINE1":"1 46382U 20062BK  22073.57782954  .00007010  00000-0  48876-3 0  9998","DECAY_DATE":null,"ARG_OF_PERICENTER":"52.4955","MEAN_MOTION":"15.06420318","MEAN_MOTION_DOT":"0.00007010","RCS_SIZE":"LARGE","SITE":"AFETR","MEAN_MOTION_DDOT":"0.0000000000000","OBJECT_ID":"2020-062BK","RA_OF_ASC_NODE":"28.3716","TIME_SYSTEM":"UTC","PERIOD":"95.591","EPOCH":"2022-03-14T13:52:04.472256","REV_AT_EPOCH":"8547"},{"EPOCH":"2022-03-14T16:43:56.742528","REV_AT_EPOCH":"8485","PERIOD":"95.593","TIME_SYSTEM":"UTC","RA_OF_ASC_NODE":"72.8283","MEAN_MOTION_DDOT":"0.0000000000000","SITE":"AFETR","OBJECT_ID":"2020-062BL","RCS_SIZE":"LARGE","MEAN_MOTION_DOT":"-0.00002277","MEAN_MOTION":"15.06391272","ARG_OF_PERICENTER":"64.4198","TLE_LINE1":"1 46383U 20062BL  22073.69718452 -.00002277  00000-0 -13402-3 0  9993","DECAY_DATE":null,"SEMIMAJOR_AXIS":"6925.375","INCLINATION":"53.0539","LAUNCH_DATE":"2020-09-03","CLASSIFICATION_TYPE":"U","MEAN_ELEMENT_THEORY":"SGP4","PERIAPSIS":"546.001","ELEMENT_SET_NO":"999","TLE_LINE2":"2 46383  53.0539  72.8283 0001790  64.4198 295.6976 15.06391272 84855","OBJECT_TYPE":"PAYLOAD","OBJECT_NAME":"STARLINK-1770","GP_ID":"198767908","REF_FRAME":"TEME","COUNTRY_CODE":"US","ECCENTRICITY":"0.00017900","NORAD_CAT_ID":"46383","APOAPSIS":"548.480","MEAN_ANOMALY":"295.6976","CENTER_NAME":"EARTH","FILE":"3359665","BSTAR":"-0.00013402000000","EPHEMERIS_TYPE":"0"}];
